{"type":"FeatureCollection","features":[{"type":"Feature","properties":{"mode":"bus","n":17,"arr":["457","460","461","462","463","464","465","466","470","471","472","473","474","475","476","477","PSK"],"lines":"457, 460, 461, 462, 463, 464, 465, 466, 470, 471, 472, 473, 474, 475, 476, 477, PSK"},"geometry":{"type":"LineString","coordinates":[[19.563296,50.28118],[19.562374,50.281371],[19.562118,50.281494],[19.557218,50.282903],[19.557177,50.282923],[19.557155,50.282953],[19.557134,50.283012],[19.557112,50.283041],[19.557069,50.283059],[19.557009,50.283074],[19.55699,50.283077],[19.556977,50.283076],[19.556969,50.283071],[19.556966,50.283063],[19.556968,50.283051],[19.556998,50.282964]]}},{"type":"Feature","properties":{"mode":"bus","n":13,"arr":["457","460","461","462","463","464","465","466","470","473","474","476","PSK"],"lines":"457, 460, 461, 462, 463, 464, 465, 466, 470, 473, 474, 476, PSK"},"geometry":{"type":"LineString","coordinates":[[19.548344,50.284562],[19.548178,50.284637],[19.548157,50.284644],[19.548139,50.284644],[19.548122,50.284639],[19.548108,50.284627],[19.54806,50.28457]]}},{"type":"Feature","properties":{"mode":"bus","n":12,"arr":["460","461","462","463","464","465","466","470","473","474","476","PSK"],"lines":"460, 461, 462, 463, 464, 465, 466, 470, 473, 474, 476, PSK"},"geometry":{"type":"LineString","coordinates":[[19.548142,50.284409],[19.548067,50.284482],[19.54806,50.28457]]}},{"type":"Feature","properties":{"mode":"bus","n":13,"arr":["460","461","462","463","464","465","466","470","473","474","476","PS","PSK"],"lines":"460, 461, 462, 463, 464, 465, 466, 470, 473, 474, 476, PS, PSK"},"geometry":{"type":"LineString","coordinates":[[19.54846,50.284389],[19.548296,50.284365],[19.548142,50.284409]]}},{"type":"Feature","properties":{"mode":"bus","n":14,"arr":["457","460","461","462","463","464","465","466","470","471","473","474","476","PSK"],"lines":"457, 460, 461, 462, 463, 464, 465, 466, 470, 471, 473, 474, 476, PSK"},"geometry":{"type":"LineString","coordinates":[[19.54846,50.284389],[19.548531,50.284442],[19.548544,50.284455],[19.548547,50.284467],[19.548539,50.284478],[19.548521,50.284489],[19.548344,50.284562]]}},{"type":"Feature","properties":{"mode":"bus","n":5,"arr":["470","471","473","474","476"],"lines":"470, 471, 473, 474, 476"},"geometry":{"type":"LineString","coordinates":[[19.548568,50.284469],[19.548584,50.284572],[19.548555,50.284613],[19.548548,50.284635],[19.548559,50.284655],[19.54885,50.284948],[19.548876,50.285012],[19.548879,50.285034],[19.54887,50.285054],[19.548848,50.285071],[19.546859,50.286199],[19.546624,50.286385],[19.546462,50.286635],[19.546341,50.287446],[19.546278,50.287582],[19.546135,50.28777],[19.542668,50.291009],[19.54257,50.291269],[19.542578,50.291343],[19.542661,50.291471],[19.543521,50.292544],[19.54428,50.293613],[19.548055,50.298679],[19.548104,50.298883],[19.547332,50.306624],[19.547367,50.307037],[19.547473,50.307198],[19.548867,50.308538],[19.549353,50.308878],[19.551138,50.310427],[19.554974,50.313661],[19.555401,50.314065],[19.555591,50.314202],[19.555786,50.314297],[19.560128,50.315828],[19.560703,50.316075],[19.562121,50.316889]]}},{"type":"Feature","properties":{"mode":"bus","n":6,"arr":["460","463","464","465","466","467"],"lines":"460, 463, 464, 465, 466, 467"},"geometry":{"type":"LineString","coordinates":[[19.469286,50.287069],[19.46941,50.287079],[19.469504,50.287131],[19.469524,50.287248],[19.469459,50.287307],[19.469369,50.287335],[19.469243,50.287328],[19.469146,50.287276]]}},{"type":"Feature","properties":{"mode":"bus","n":7,"arr":["457","460","463","464","465","466","467"],"lines":"457, 460, 463, 464, 465, 466, 467"},"geometry":{"type":"LineString","coordinates":[[19.462119,50.264822],[19.462319,50.264849],[19.462496,50.264938],[19.462757,50.265393],[19.462663,50.267078],[19.462713,50.267398],[19.462837,50.26776],[19.466682,50.27282],[19.469863,50.27714],[19.470034,50.277436],[19.470074,50.277719],[19.470062,50.277855],[19.469879,50.278456],[19.469717,50.278927],[19.469455,50.279489],[19.469418,50.27966],[19.469477,50.280016],[19.469648,50.280378],[19.469683,50.280532],[19.469613,50.280911],[19.469316,50.281456],[19.469233,50.282206],[19.469093,50.285794],[19.46913,50.286444],[19.469282,50.287054],[19.469282,50.287063],[19.469275,50.28707],[19.469263,50.287074],[19.469221,50.287084],[19.469129,50.287149],[19.469118,50.287236],[19.469136,50.287262],[19.469139,50.287271],[19.469136,50.287278],[19.469126,50.287285],[19.468559,50.287537],[19.467504,50.287951],[19.464521,50.288833],[19.463731,50.289182],[19.462971,50.289577],[19.462501,50.289872],[19.461984,50.290383],[19.461182,50.291254],[19.461168,50.291264],[19.461152,50.291267],[19.461133,50.291264],[19.461106,50.291256],[19.461074,50.291252],[19.461044,50.291258],[19.46093,50.291299],[19.460124,50.291807],[19.460034,50.291922]]}},{"type":"Feature","properties":{"mode":"bus","n":16,"arr":["460","461","462","463","464","465","466","470","471","472","473","474","475","476","477","PSK"],"lines":"460, 461, 462, 463, 464, 465, 466, 470, 471, 472, 473, 474, 475, 476, 477, PSK"},"geometry":{"type":"LineString","coordinates":[[19.557167,50.282918],[19.556998,50.282964]]}},{"type":"Feature","properties":{"mode":"bus","n":16,"arr":["460","461","462","463","464","465","466","470","471","472","473","474","475","476","477","PSK"],"lines":"460, 461, 462, 463, 464, 465, 466, 470, 471, 472, 473, 474, 475, 476, 477, PSK"},"geometry":{"type":"LineString","coordinates":[[19.549393,50.284039],[19.549852,50.283862],[19.550764,50.283686],[19.553166,50.283396],[19.553831,50.283392]]}},{"type":"Feature","properties":{"mode":"bus","n":7,"arr":["470","471","472","473","474","476","477"],"lines":"470, 471, 472, 473, 474, 476, 477"},"geometry":{"type":"LineString","coordinates":[[19.562224,50.335792],[19.562304,50.335707],[19.56243,50.335683],[19.56251,50.335703],[19.562547,50.335718],[19.562571,50.335741],[19.562598,50.335782],[19.562608,50.335815],[19.562596,50.335847],[19.562575,50.335874],[19.562543,50.335901],[19.562497,50.335916],[19.562451,50.335925],[19.562399,50.335928],[19.56235,50.335915],[19.562285,50.335888],[19.562255,50.335869],[19.56224,50.335844],[19.562224,50.335792]]}},{"type":"Feature","properties":{"mode":"bus","n":7,"arr":["470","471","472","473","474","476","477"],"lines":"470, 471, 472, 473, 474, 476, 477"},"geometry":{"type":"LineString","coordinates":[[19.562121,50.316889],[19.561167,50.319548],[19.560698,50.321923],[19.560779,50.322455],[19.561145,50.323164],[19.561321,50.323657],[19.561432,50.324439],[19.561549,50.325826],[19.561502,50.326303],[19.561408,50.326673],[19.56121,50.327141],[19.560975,50.327543],[19.56097,50.327564],[19.56098,50.327579],[19.561007,50.327591],[19.56128,50.327665],[19.561323,50.32769],[19.561357,50.327778],[19.560869,50.328918],[19.560774,50.329246],[19.56079,50.329378]]}},{"type":"Feature","properties":{"mode":"bus","n":7,"arr":["470","471","472","473","474","476","477"],"lines":"470, 471, 472, 473, 474, 476, 477"},"geometry":{"type":"LineString","coordinates":[[19.560955,50.327577],[19.560613,50.328017],[19.560204,50.328408],[19.559881,50.32868],[19.559144,50.329156],[19.558635,50.329413],[19.558195,50.329601],[19.554696,50.330986],[19.554648,50.331018],[19.55463,50.331084],[19.554944,50.331581],[19.555936,50.333006],[19.556163,50.333207],[19.556451,50.333337],[19.561093,50.335122],[19.561944,50.335471],[19.562304,50.335707]]}},{"type":"Feature","properties":{"mode":"bus","n":11,"arr":["457","460","464","465","466","470","474","475","M","PS","PSK"],"lines":"457, 460, 464, 465, 466, 470, 474, 475, M, PS, PSK"},"geometry":{"type":"LineString","coordinates":[[19.574001,50.26092],[19.573209,50.260706],[19.57283,50.260628],[19.572058,50.260528],[19.570947,50.2605],[19.568761,50.260494],[19.563556,50.260195],[19.563125,50.260196]]}},{"type":"Feature","properties":{"mode":"bus","n":10,"arr":["457","460","464","465","466","470","474","475","PS","PSK"],"lines":"457, 460, 464, 465, 466, 470, 474, 475, PS, PSK"},"geometry":{"type":"LineString","coordinates":[[19.575999,50.261497],[19.575317,50.261333],[19.574001,50.26092]]}},{"type":"Feature","properties":{"mode":"bus","n":13,"arr":["457","460","464","465","466","470","474","475","G","PS","PSK","ZP","ZZ"],"lines":"457, 460, 464, 465, 466, 470, 474, 475, G, PS, PSK, ZP, ZZ"},"geometry":{"type":"LineString","coordinates":[[19.574203,50.265948],[19.575999,50.261497]]}},{"type":"Feature","properties":{"mode":"bus","n":12,"arr":["457","460","464","465","466","470","474","475","BP","G","ZP","ZZ"],"lines":"457, 460, 464, 465, 466, 470, 474, 475, BP, G, ZP, ZZ"},"geometry":{"type":"LineString","coordinates":[[19.574203,50.265948],[19.573557,50.267671],[19.573622,50.269031],[19.573574,50.269186],[19.573316,50.269651],[19.573092,50.270019],[19.572997,50.27012]]}},{"type":"Feature","properties":{"mode":"bus","n":19,"arr":["457","460","461","464","465","466","470","472","474","475","477","G","M","PS","PSK","SŁ","ZP","ZZ","Ż"],"lines":"457, 460, 461, 464, 465, 466, 470, 472, 474, 475, 477, G, M, PS, PSK, SŁ, ZP, ZZ, Ż"},"geometry":{"type":"LineString","coordinates":[[19.572997,50.27012],[19.573559,50.270172],[19.573948,50.270174],[19.578197,50.269612],[19.578587,50.269607],[19.579034,50.269657],[19.579525,50.26978]]}},{"type":"Feature","properties":{"mode":"bus","n":17,"arr":["457","460","461","464","465","466","470","472","474","475","477","G","PS","PSK","ZP","ZZ","Ż"],"lines":"457, 460, 461, 464, 465, 466, 470, 472, 474, 475, 477, G, PS, PSK, ZP, ZZ, Ż"},"geometry":{"type":"LineString","coordinates":[[19.579525,50.26978],[19.581863,50.270439],[19.582295,50.270509],[19.582645,50.270534],[19.587103,50.270429],[19.587451,50.270432],[19.587999,50.270488],[19.588373,50.270622],[19.588799,50.270872],[19.588996,50.271098],[19.589451,50.271877]]}},{"type":"Feature","properties":{"mode":"bus","n":15,"arr":["457","460","464","465","466","470","472","474","475","G","PS","PSK","ZP","ZZ","Ż"],"lines":"457, 460, 464, 465, 466, 470, 472, 474, 475, G, PS, PSK, ZP, ZZ, Ż"},"geometry":{"type":"LineString","coordinates":[[19.589507,50.271982],[19.589451,50.271877]]}},{"type":"Feature","properties":{"mode":"bus","n":17,"arr":["457","460","464","465","466","470","472","474","475","BP","G","PS","PSK","WK","ZP","ZZ","Ż"],"lines":"457, 460, 464, 465, 466, 470, 472, 474, 475, BP, G, PS, PSK, WK, ZP, ZZ, Ż"},"geometry":{"type":"LineString","coordinates":[[19.588508,50.272342],[19.589113,50.272211],[19.589225,50.272235],[19.589382,50.272307],[19.589474,50.272318],[19.589594,50.272299],[19.589665,50.272272],[19.589684,50.272262],[19.589691,50.272248],[19.589685,50.272232],[19.58953,50.272015],[19.589511,50.271998],[19.589486,50.271991],[19.589454,50.271994],[19.586859,50.272576],[19.586538,50.272659],[19.585807,50.272905],[19.585229,50.273154],[19.584613,50.273486],[19.584174,50.27378],[19.583695,50.274172]]}},{"type":"Feature","properties":{"mode":"bus","n":18,"arr":["457","460","464","465","466","470","472","474","475","BP","G","PS","PSK","SŁ","WK","ZP","ZZ","Ż"],"lines":"457, 460, 464, 465, 466, 470, 472, 474, 475, BP, G, PS, PSK, SŁ, WK, ZP, ZZ, Ż"},"geometry":{"type":"LineString","coordinates":[[19.583695,50.274172],[19.583516,50.274146]]}},{"type":"Feature","properties":{"mode":"bus","n":20,"arr":["457","460","461","464","465","466","470","472","474","475","477","BP","G","PS","PSK","SŁ","WK","ZP","ZZ","Ż"],"lines":"457, 460, 461, 464, 465, 466, 470, 472, 474, 475, 477, BP, G, PS, PSK, SŁ, WK, ZP, ZZ, Ż"},"geometry":{"type":"LineString","coordinates":[[19.583516,50.274146],[19.582986,50.274089],[19.578888,50.274241],[19.577162,50.274597],[19.575788,50.274849],[19.575136,50.274944],[19.573323,50.27508]]}},{"type":"Feature","properties":{"mode":"bus","n":23,"arr":["457","460","461","462","464","465","466","470","472","474","475","476","477","BP","G","M","PS","PSK","SŁ","WK","ZP","ZZ","Ż"],"lines":"457, 460, 461, 462, 464, 465, 466, 470, 472, 474, 475, 476, 477, BP, G, M, PS, PSK, SŁ, WK, ZP, ZZ, Ż"},"geometry":{"type":"LineString","coordinates":[[19.573323,50.27508],[19.573071,50.275149],[19.571648,50.275679],[19.570352,50.276093],[19.57002,50.276158],[19.5696,50.276201],[19.567134,50.276587],[19.566735,50.276697],[19.565657,50.277083],[19.565283,50.277193],[19.564823,50.277321],[19.563752,50.277552],[19.563515,50.277635],[19.562392,50.278126],[19.562369,50.278141],[19.56236,50.278159],[19.562367,50.278179],[19.563294,50.279663]]}},{"type":"Feature","properties":{"mode":"bus","n":22,"arr":["457","460","461","462","464","465","466","470","472","474","475","476","477","BP","G","M","PSK","SŁ","WK","ZP","ZZ","Ż"],"lines":"457, 460, 461, 462, 464, 465, 466, 470, 472, 474, 475, 476, 477, BP, G, M, PSK, SŁ, WK, ZP, ZZ, Ż"},"geometry":{"type":"LineString","coordinates":[[19.563294,50.279663],[19.564288,50.280444]]}},{"type":"Feature","properties":{"mode":"bus","n":25,"arr":["457","460","461","462","463","464","465","466","470","471","472","473","474","475","476","477","BP","G","M","PSK","SŁ","WK","ZP","ZZ","Ż"],"lines":"457, 460, 461, 462, 463, 464, 465, 466, 470, 471, 472, 473, 474, 475, 476, 477, BP, G, M, PSK, SŁ, WK, ZP, ZZ, Ż"},"geometry":{"type":"LineString","coordinates":[[19.564288,50.280444],[19.564652,50.280695],[19.564963,50.280803],[19.564978,50.280809],[19.564986,50.280816],[19.564985,50.280821],[19.564976,50.280826],[19.564959,50.280831],[19.563349,50.281169],[19.563326,50.281171],[19.56331,50.281168],[19.563302,50.281159],[19.5633,50.281144],[19.563314,50.281021],[19.563269,50.280953],[19.563263,50.280933],[19.563269,50.280913],[19.563294,50.280875],[19.563429,50.280832]]}},{"type":"Feature","properties":{"mode":"bus","n":18,"arr":["457","460","461","462","463","464","465","466","470","471","472","473","474","475","476","477","PS","PSK"],"lines":"457, 460, 461, 462, 463, 464, 465, 466, 470, 471, 472, 473, 474, 475, 476, 477, PS, PSK"},"geometry":{"type":"LineString","coordinates":[[19.556998,50.282964],[19.556514,50.283071],[19.555586,50.2832],[19.551004,50.283703],[19.550432,50.283791],[19.549393,50.284039]]}},{"type":"Feature","properties":{"mode":"bus","n":15,"arr":["457","460","461","462","463","464","465","466","470","471","473","474","476","PS","PSK"],"lines":"457, 460, 461, 462, 463, 464, 465, 466, 470, 471, 473, 474, 476, PS, PSK"},"geometry":{"type":"LineString","coordinates":[[19.549393,50.284039],[19.54846,50.284389]]}},{"type":"Feature","properties":{"mode":"bus","n":9,"arr":["457","460","461","462","463","464","465","466","PSK"],"lines":"457, 460, 461, 462, 463, 464, 465, 466, PSK"},"geometry":{"type":"LineString","coordinates":[[19.54806,50.28457],[19.547603,50.284796],[19.543943,50.286783],[19.543412,50.287011],[19.542693,50.287262],[19.542189,50.28739],[19.541477,50.287528],[19.541143,50.287581],[19.540411,50.287652],[19.539032,50.287642],[19.537178,50.28756]]}},{"type":"Feature","properties":{"mode":"bus","n":8,"arr":["457","460","461","462","463","464","465","466"],"lines":"457, 460, 461, 462, 463, 464, 465, 466"},"geometry":{"type":"LineString","coordinates":[[19.480763,50.296733],[19.481066,50.296747],[19.481693,50.296671],[19.49854,50.293592],[19.498573,50.29359],[19.4986,50.293597],[19.49862,50.293614],[19.49879,50.293823],[19.499587,50.294666],[19.499602,50.294678],[19.499619,50.294683],[19.499638,50.294682],[19.499658,50.294673],[19.500422,50.294248],[19.501369,50.293798],[19.502185,50.293464],[19.502948,50.293201],[19.520875,50.287573],[19.521966,50.287274],[19.522658,50.287148],[19.523527,50.287056],[19.524185,50.28703],[19.524977,50.287046],[19.526337,50.287114],[19.527684,50.287105],[19.53114,50.287304],[19.537122,50.287558],[19.537153,50.287563],[19.537173,50.287576],[19.53718,50.287596],[19.5372,50.287893],[19.537197,50.287908],[19.537188,50.287917],[19.537173,50.287919],[19.53715,50.287915],[19.536772,50.287816],[19.53648,50.28777],[19.535275,50.287709],[19.534961,50.287724]]}},{"type":"Feature","properties":{"mode":"bus","n":9,"arr":["457","460","461","462","463","464","465","466","467"],"lines":"457, 460, 461, 462, 463, 464, 465, 466, 467"},"geometry":{"type":"LineString","coordinates":[[19.465638,50.296176],[19.471421,50.294552],[19.471983,50.294474],[19.47336,50.294331],[19.474005,50.294321],[19.474373,50.294352],[19.475404,50.294501],[19.476085,50.2947],[19.477418,50.295157],[19.478423,50.295613],[19.480366,50.296629],[19.480763,50.296733]]}},{"type":"Feature","properties":{"mode":"bus","n":7,"arr":["457","460","462","464","465","466","467"],"lines":"457, 460, 462, 464, 465, 466, 467"},"geometry":{"type":"LineString","coordinates":[[19.460034,50.291922],[19.461349,50.292273],[19.46151,50.292307],[19.461599,50.292295],[19.46197,50.292445],[19.463005,50.292727],[19.463176,50.2928],[19.463364,50.292986],[19.464408,50.294485],[19.465638,50.296176]]}},{"type":"Feature","properties":{"mode":"bus","n":17,"arr":["457","460","461","464","465","466","470","472","474","475","G","M","PSK","SŁ","WK","ZP","ZZ"],"lines":"457, 460, 461, 464, 465, 466, 470, 472, 474, 475, G, M, PSK, SŁ, WK, ZP, ZZ"},"geometry":{"type":"LineString","coordinates":[[19.563429,50.280832],[19.563644,50.280787]]}},{"type":"Feature","properties":{"mode":"bus","n":24,"arr":["457","460","461","462","463","464","465","466","470","471","472","473","474","475","476","477","BP","G","M","PSK","SŁ","WK","ZP","ZZ"],"lines":"457, 460, 461, 462, 463, 464, 465, 466, 470, 471, 472, 473, 474, 475, 476, 477, BP, G, M, PSK, SŁ, WK, ZP, ZZ"},"geometry":{"type":"LineString","coordinates":[[19.564288,50.280444],[19.563823,50.280749],[19.563644,50.280787]]}},{"type":"Feature","properties":{"mode":"bus","n":18,"arr":["457","460","461","464","465","470","472","474","475","477","BP","G","PS","PSK","WK","ZP","ZZ","Ż"],"lines":"457, 460, 461, 464, 465, 470, 472, 474, 475, 477, BP, G, PS, PSK, WK, ZP, ZZ, Ż"},"geometry":{"type":"LineString","coordinates":[[19.589451,50.271877],[19.586475,50.272536],[19.58566,50.272784],[19.584927,50.2731],[19.584489,50.27335],[19.584075,50.273646],[19.583516,50.274146]]}},{"type":"Feature","properties":{"mode":"bus","n":14,"arr":["457","461","464","465","466","472","475","477","BP","M","PS","PSK","SŁ","Ż"],"lines":"457, 461, 464, 465, 466, 472, 475, 477, BP, M, PS, PSK, SŁ, Ż"},"geometry":{"type":"LineString","coordinates":[[19.56605,50.269623],[19.566353,50.269603],[19.567056,50.269618],[19.569462,50.269748],[19.571216,50.269918],[19.572997,50.27012]]}},{"type":"Feature","properties":{"mode":"bus","n":7,"arr":["457","466","475","BP","M","SŁ","Ż"],"lines":"457, 466, 475, BP, M, SŁ, Ż"},"geometry":{"type":"LineString","coordinates":[[19.56085,50.271332],[19.561128,50.271291],[19.561287,50.271244],[19.565405,50.269797],[19.56605,50.269623]]}},{"type":"Feature","properties":{"mode":"bus","n":12,"arr":["460","461","462","464","465","466","472","475","476","BP","M","Ż"],"lines":"460, 461, 462, 464, 465, 466, 472, 475, 476, BP, M, Ż"},"geometry":{"type":"LineString","coordinates":[[19.573877,50.274838],[19.57344,50.274899],[19.573394,50.274912],[19.573361,50.274937],[19.573313,50.274994],[19.573323,50.27508]]}},{"type":"Feature","properties":{"mode":"bus","n":7,"arr":["460","461","462","463","464","465","466"],"lines":"460, 461, 462, 463, 464, 465, 466"},"geometry":{"type":"LineString","coordinates":[[19.527684,50.287105],[19.525107,50.286948],[19.523932,50.286924],[19.523207,50.28697],[19.522581,50.287044],[19.52196,50.28716],[19.521409,50.287296],[19.514347,50.289488],[19.502862,50.293105],[19.502193,50.293335],[19.501248,50.29371],[19.500685,50.293971],[19.499513,50.29459]]}},{"type":"Feature","properties":{"mode":"bus","n":12,"arr":["460","461","462","464","465","470","472","474","475","476","477","PSK"],"lines":"460, 461, 462, 464, 465, 470, 472, 474, 475, 476, 477, PSK"},"geometry":{"type":"LineString","coordinates":[[19.564751,50.280875],[19.564652,50.280695]]}},{"type":"Feature","properties":{"mode":"bus","n":10,"arr":["460","461","462","464","465","472","475","476","BP","M"],"lines":"460, 461, 462, 464, 465, 472, 475, 476, BP, M"},"geometry":{"type":"LineString","coordinates":[[19.573984,50.274629],[19.573877,50.274838]]}},{"type":"Feature","properties":{"mode":"bus","n":10,"arr":["460","464","465","466","470","474","475","M","PS","PSK"],"lines":"460, 464, 465, 466, 470, 474, 475, M, PS, PSK"},"geometry":{"type":"LineString","coordinates":[[19.563125,50.260196],[19.563136,50.260361],[19.563132,50.260381],[19.563114,50.260395],[19.563083,50.260401],[19.562959,50.260411],[19.562928,50.260417],[19.562909,50.260431],[19.562902,50.260451],[19.562894,50.260745]]}},{"type":"Feature","properties":{"mode":"bus","n":5,"arr":["461","463","464","466","467"],"lines":"461, 463, 464, 466, 467"},"geometry":{"type":"LineString","coordinates":[[19.477927,50.29991],[19.480593,50.296985],[19.480763,50.296733]]}},{"type":"Feature","properties":{"mode":"bus","n":5,"arr":["461","463","464","466","467"],"lines":"461, 463, 464, 466, 467"},"geometry":{"type":"LineString","coordinates":[[19.479647,50.305615],[19.479263,50.304228]]}},{"type":"Feature","properties":{"mode":"bus","n":9,"arr":["461","464","465","472","475","477","PS","PSK","Ż"],"lines":"461, 464, 465, 472, 475, 477, PS, PSK, Ż"},"geometry":{"type":"LineString","coordinates":[[19.56605,50.269623],[19.5659,50.269062],[19.565901,50.268789],[19.566003,50.268489],[19.56619,50.268202],[19.566375,50.268022],[19.567115,50.267454]]}},{"type":"Feature","properties":{"mode":"bus","n":7,"arr":["464","465","475","BP","PS","PSK","SŁ"],"lines":"464, 465, 475, BP, PS, PSK, SŁ"},"geometry":{"type":"LineString","coordinates":[[19.567115,50.267454],[19.568788,50.266164],[19.568987,50.266017],[19.569132,50.265951],[19.569297,50.265919],[19.569882,50.26587],[19.572598,50.265668],[19.572818,50.265668],[19.573359,50.265772]]}},{"type":"Feature","properties":{"mode":"bus","n":11,"arr":["461","464","465","472","475","477","BP","PS","PSK","SŁ","Ż"],"lines":"461, 464, 465, 472, 475, 477, BP, PS, PSK, SŁ, Ż"},"geometry":{"type":"LineString","coordinates":[[19.567115,50.267454],[19.567019,50.267383],[19.56691,50.267183],[19.566853,50.267142],[19.566831,50.267131],[19.566807,50.267128],[19.56678,50.267132],[19.566664,50.267164]]}},{"type":"Feature","properties":{"mode":"bus","n":5,"arr":["472","475","PS","PSK","Ż"],"lines":"472, 475, PS, PSK, Ż"},"geometry":{"type":"LineString","coordinates":[[19.566629,50.267189],[19.566586,50.267244],[19.566577,50.267262],[19.566582,50.26728],[19.566601,50.267295],[19.567007,50.267538]]}},{"type":"Feature","properties":{"mode":"bus","n":8,"arr":["464","465","475","BP","M","PS","PSK","SŁ"],"lines":"464, 465, 475, BP, M, PS, PSK, SŁ"},"geometry":{"type":"LineString","coordinates":[[19.573359,50.265772],[19.574203,50.265948]]}},{"type":"Feature","properties":{"mode":"bus","n":7,"arr":["466","475","BP","M","PS","SŁ","Ż"],"lines":"466, 475, BP, M, PS, SŁ, Ż"},"geometry":{"type":"LineString","coordinates":[[19.561917,50.277524],[19.562346,50.278146]]}},{"type":"Feature","properties":{"mode":"bus","n":5,"arr":["466","475","BP","M","SŁ"],"lines":"466, 475, BP, M, SŁ"},"geometry":{"type":"LineString","coordinates":[[19.561917,50.277524],[19.561778,50.277076],[19.561172,50.272848],[19.561024,50.272156],[19.560854,50.271627],[19.56085,50.271332]]}},{"type":"Feature","properties":{"mode":"bus","n":5,"arr":["471","472","473","476","477"],"lines":"471, 472, 473, 476, 477"},"geometry":{"type":"LineString","coordinates":[[19.562561,50.350556],[19.562534,50.345915],[19.562454,50.342637],[19.562318,50.340774],[19.562066,50.338545],[19.562097,50.33645],[19.56216,50.336238],[19.562344,50.335926]]}},{"type":"Feature","properties":{"mode":"bus","n":5,"arr":["471","472","474","475","477"],"lines":"471, 472, 474, 475, 477"},"geometry":{"type":"LineString","coordinates":[[19.562121,50.316889],[19.563484,50.313177],[19.563519,50.312865],[19.563357,50.310214],[19.563355,50.309489],[19.563494,50.309029],[19.564541,50.306275],[19.564623,50.305746],[19.56462,50.305467],[19.564531,50.305132],[19.564373,50.304775],[19.564181,50.30448],[19.563103,50.303128],[19.56291,50.302817],[19.562767,50.302486],[19.562724,50.302222],[19.56273,50.301945],[19.562986,50.301087],[19.563005,50.300734],[19.562941,50.300404],[19.5628,50.300056],[19.562392,50.29936],[19.560766,50.297369],[19.559512,50.295243],[19.559328,50.294783],[19.559283,50.294485],[19.559306,50.293485],[19.559283,50.293175],[19.559042,50.292006],[19.558882,50.291405],[19.558786,50.290627],[19.55806,50.288609],[19.556701,50.286084],[19.556644,50.285925],[19.55661,50.285629],[19.556783,50.28421],[19.55692,50.283591],[19.556956,50.283086]]}}]}